STARLINK-11199 [DTC]    
1 60404U 24141G   25085.06700724 -.00003634  00000+0 -25123-4 0  9996
2 60404  53.1592   5.1467 0000908  90.6076 269.5046 15.69737310 36989
STARLINK-11081 [DTC]    
1 60405U 24141H   25085.06210604  .00000813  00000+0  11564-4 0  9998
2 60405  53.1584   5.1125 0000739  38.0349 322.0721 15.69717721 36948
STARLINK-11150 [DTC]    
1 60406U 24141J   25084.80252435  .00000690  00000+0  10554-4 0  9999
2 60406  53.1581   6.3358 0001621  65.3353 294.7834 15.69719582 36943
STARLINK-11136 [DTC]    
1 60407U 24141K   25085.05229484 -.00000017  00000+0  47102-5 0  9990
2 60407  53.1581   5.0444 0000777  99.6550 260.4556 15.69718049 36933
STARLINK-11196 [DTC]    
1 60408U 24141L   25085.17473651  .00001745  00000+0  19269-4 0  9991
2 60408  53.1592   4.3876 0001419  71.7270 288.3902 15.69698746 37005
STARLINK-11174 [DTC]    
1 60409U 24141M   25085.16491883 -.00001590  00000+0 -82645-5 0  9997
2 60409  53.1591   4.3169 0001256 110.6686 249.4467 15.69717041 36949
STARLINK-11191 [DTC]    
1 60410U 24141N   25085.03267534  .00000927  00000+0  12514-4 0  9997
2 60410  53.1590   4.9126 0001489 106.6036 253.5145 15.69710338 36986
STARLINK-32244          
1 60411U 24141P   25085.20897576 -.00000702  00000+0 -11580-4 0  9997
2 60411  53.1613  61.4592 0001332  98.5388 261.5764 15.30183974 36214
STARLINK-32186          
1 60412U 24141Q   25085.20580330 -.00000447  00000+0 -29778-5 0  9990
2 60412  53.1617  61.4423 0001366  82.8503 277.2653 15.30205493 36159
STARLINK-32178          
1 60413U 24141R   25085.19629960  .00000818  00000+0  39764-4 0  9997
2 60413  53.1615  61.3803 0001517  80.2846 279.8326 15.30199051 36156
STARLINK-32234          
1 60414U 24141S   25085.20263813 -.00002013  00000+0 -55830-4 0  9994
2 60414  53.1618  61.4188 0001516  78.2054 281.9117 15.30205576 36213
STARLINK-32197          
1 60416U 24141U   25085.20588555 -.00000295  00000+0  21587-5 0  9991
2 60416  53.1621  51.4738 0001295  79.1088 281.0059 15.30197686 36308
STARLINK-32255          
1 60417U 24141V   25085.18996784 -.00002047  00000+0 -56985-4 0  9993
2 60417  53.1621  61.3396 0001269  89.3817 270.7329 15.30205596 36218
STARLINK-32250          
1 60425U 24144A   25085.15837678  .00000965  00000+0  44723-4 0  9990
2 60425  53.1605  36.2975 0001403 105.9207 254.1949 15.30188614 35978
STARLINK-32226          
1 60426U 24144B   25085.15732714 -.00000961  00000+0 -20327-4 0  9998
2 60426  53.1615  36.2932 0001196 119.8000 240.3119 15.30184098 35773
STARLINK-32254          
1 60427U 24144C   25084.88339679  .00000834  00000+0  40296-4 0  9995
2 60427  53.1605  37.4266 0001257  78.4542 281.6600 15.30196745 35949
STARLINK-32193          
1 60428U 24144D   25085.15520865  .00004380  00000+0  15994-3 0  9992
2 60428  53.1598  36.2782 0001169  86.6731 273.4404 15.30197893 35984
STARLINK-32242          
1 60429U 24144E   25084.88656195  .00000747  00000+0  37366-4 0  9999
2 60429  53.1617  37.4469 0001096  84.3310 275.7816 15.30191165 35943
STARLINK-32196          
1 60430U 24144F   25085.14149234  .00001809  00000+0  73204-4 0  9993
2 60430  53.1608  36.1929 0001071  93.8287 266.2836 15.30192812 35883
STARLINK-32232          
1 60431U 24144G   25085.15204096  .00000614  00000+0  32863-4 0  9992
2 60431  53.1597  36.2605 0001100  82.2444 277.8682 15.30197369 35882
STARLINK-32246          
1 60432U 24144H   25084.87917856  .00000768  00000+0  38046-4 0  9995
2 60432  53.1611  37.3988 0000624  91.7641 268.3431 15.30190726 35854
STARLINK-32183          
1 60433U 24144J   25085.13831627  .00003336  00000+0  12470-3 0  9993
2 60433  53.1624  36.1723 0001387  81.8163 278.2995 15.30201822 35887
STARLINK-32233          
1 60434U 24144K   25084.60630798  .00000536  00000+0  30214-4 0  9997
2 60434  53.1623  38.5369 0001220  86.1145 273.9995 15.30195014 35802
STARLINK-32222          
1 60435U 24144L   25085.13196750  .00004772  00000+0  17302-3 0  9990
2 60435  53.1622  36.1337 0001400 103.3179 256.7978 15.30225495 35885
STARLINK-32229          
1 60436U 24144M   25085.12566530  .00000281  00000+0  21609-4 0  9994
2 60436  53.1608  36.0894 0001156  75.4130 284.6999 15.30191384 35883
STARLINK-32241          
1 60437U 24144N   25085.12461525 -.00001495  00000+0 -38363-4 0  9998
2 60437  53.1621  36.0838 0002009 100.6059 259.5168 15.30183189 35889
STARLINK-32240          
1 60438U 24144P   25085.12250566 -.00001973  00000+0 -54566-4 0  9994
2 60438  53.1620  36.0722 0000286  83.2362 276.8672 15.30178611 35975
