OBJECT_NAME,OBJECT_ID,EPOCH,MEAN_MOTION,ECCENTRICITY,INCLINATION,RA_OF_ASC_NODE,ARG_OF_PERICENTER,MEAN_ANOMALY,EPHEMERIS_TYPE,CLASSIFICATION_TYPE,NORAD_CAT_ID,ELEMENT_SET_NO,REV_AT_EPOCH,BSTAR,MEAN_MOTION_DOT,MEAN_MOTION_DDOT
STARLINK-11199 [DTC],2024-141G,2025-03-26T01:36:29.425536,15.69737310,.0000908,53.1592,5.1467,90.6076,269.5046,0,U,60404,999,3698,-.25123E-4,-.3634E-4,0
STARLINK-11081 [DTC],2024-141H,2025-03-26T01:29:25.961856,15.69717721,.0000739,53.1584,5.1125,38.0349,322.0721,0,U,60405,999,3694,.11564E-4,.813E-5,0
STARLINK-11150 [DTC],2024-141J,2025-03-25T19:15:38.103840,15.69719582,.0001621,53.1581,6.3358,65.3353,294.7834,0,U,60406,999,3694,.10554E-4,.69E-5,0
STARLINK-11136 [DTC],2024-141K,2025-03-26T01:15:18.274176,15.69718049,.0000777,53.1581,5.0444,99.6550,260.4556,0,U,60407,999,3693,.47102E-5,-.17E-6,0
STARLINK-11196 [DTC],2024-141L,2025-03-26T04:11:37.234464,15.69698746,.0001419,53.1592,4.3876,71.7270,288.3902,0,U,60408,999,3700,.19269E-4,.1745E-4,0
STARLINK-11174 [DTC],2024-141M,2025-03-26T03:57:28.986912,15.69717041,.0001256,53.1591,4.3169,110.6686,249.4467,0,U,60409,999,3694,-.82645E-5,-.159E-4,0
STARLINK-11191 [DTC],2024-141N,2025-03-26T00:47:03.149376,15.69710338,.0001489,53.1590,4.9126,106.6036,253.5145,0,U,60410,999,3698,.12514E-4,.927E-5,0
STARLINK-32244,2024-141P,2025-03-26T05:00:55.505664,15.30183974,.0001332,53.1613,61.4592,98.5388,261.5764,0,U,60411,999,3621,-.1158E-4,-.702E-5,0
STARLINK-32186,2024-141Q,2025-03-26T04:56:21.405120,15.30205493,.0001366,53.1617,61.4423,82.8503,277.2653,0,U,60412,999,3615,-.29778E-5,-.447E-5,0
STARLINK-32178,2024-141R,2025-03-26T04:42:40.285440,15.30199051,.0001517,53.1615,61.3803,80.2846,279.8326,0,U,60413,999,3615,.39764E-4,.818E-5,0
STARLINK-32234,2024-141S,2025-03-26T04:51:47.934432,15.30205576,.0001516,53.1618,61.4188,78.2054,281.9117,0,U,60414,999,3621,-.5583E-4,-.2013E-4,0
STARLINK-32197,2024-141U,2025-03-26T04:56:28.511520,15.30197686,.0001295,53.1621,51.4738,79.1088,281.0059,0,U,60416,999,3630,.21587E-5,-.295E-5,0
STARLINK-32255,2024-141V,2025-03-26T04:33:33.221376,15.30205596,.0001269,53.1621,61.3396,89.3817,270.7329,0,U,60417,999,3621,-.56985E-4,-.2047E-4,0
STARLINK-32250,2024-144A,2025-03-26T03:48:03.753792,15.30188614,.0001403,53.1605,36.2975,105.9207,254.1949,0,U,60425,999,3597,.44723E-4,.965E-5,0
STARLINK-32226,2024-144B,2025-03-26T03:46:33.064896,15.30184098,.0001196,53.1615,36.2932,119.8000,240.3119,0,U,60426,999,3577,-.20327E-4,-.961E-5,0
STARLINK-32254,2024-144C,2025-03-25T21:12:05.482656,15.30196745,.0001257,53.1605,37.4266,78.4542,281.6600,0,U,60427,999,3594,.40296E-4,.834E-5,0
STARLINK-32193,2024-144D,2025-03-26T03:43:30.027360,15.30197893,.0001169,53.1598,36.2782,86.6731,273.4404,0,U,60428,999,3598,.15994E-3,.438E-4,0
STARLINK-32242,2024-144E,2025-03-25T21:16:38.952480,15.30191165,.0001096,53.1617,37.4469,84.3310,275.7816,0,U,60429,999,3594,.37366E-4,.747E-5,0
STARLINK-32196,2024-144F,2025-03-26T03:23:44.938176,15.30192812,.0001071,53.1608,36.1929,93.8287,266.2836,0,U,60430,999,3588,.73204E-4,.1809E-4,0
STARLINK-32232,2024-144G,2025-03-26T03:38:56.338944,15.30197369,.00011,53.1597,36.2605,82.2444,277.8682,0,U,60431,999,3588,.32863E-4,.614E-5,0
STARLINK-32246,2024-144H,2025-03-25T21:06:01.027584,15.30190726,.0000624,53.1611,37.3988,91.7641,268.3431,0,U,60432,999,3585,.38046E-4,.768E-5,0
STARLINK-32183,2024-144J,2025-03-26T03:19:10.525728,15.30201822,.0001387,53.1624,36.1723,81.8163,278.2995,0,U,60433,999,3588,.1247E-3,.3336E-4,0
STARLINK-32233,2024-144K,2025-03-25T14:33:05.009472,15.30195014,.000122,53.1623,38.5369,86.1145,273.9995,0,U,60434,999,3580,.30214E-4,.536E-5,0
STARLINK-32222,2024-144L,2025-03-26T03:10:01.992000,15.30225495,.00014,53.1622,36.1337,103.3179,256.7978,0,U,60435,999,3588,.17302E-3,.4772E-4,0
STARLINK-32229,2024-144M,2025-03-26T03:00:57.481920,15.30191384,.0001156,53.1608,36.0894,75.4130,284.6999,0,U,60436,999,3588,.21609E-4,.281E-5,0
STARLINK-32241,2024-144N,2025-03-26T02:59:26.757600,15.30183189,.0002009,53.1621,36.0838,100.6059,259.5168,0,U,60437,999,3588,-.38363E-4,-.1495E-4,0
STARLINK-32240,2024-144P,2025-03-26T02:56:24.489024,15.30178611,.0000286,53.1620,36.0722,83.2362,276.8672,0,U,60438,999,3597,-.54566E-4,-.1973E-4,0
